<?xml version="1.0" encoding="UTF-8"?>
<ndm xmlns:xsi="http://www.w3.org/2001/XMLSchema-instance" xsi:noNamespaceSchemaLocation="https://sanaregistry.org/r/ndmxml_unqualified/ndmxml-2.0.0-master-2.0.xsd">
<omm id="CCSDS_OMM_VERS" version="2.0">
<header><CREATION_DATE/><ORIGINATOR/></header><body><segment><metadata><OBJECT_NAME>ONEWEB-0240</OBJECT_NAME><OBJECT_ID>2021-045U</OBJECT_ID><CENTER_NAME>EARTH</CENTER_NAME><REF_FRAME>TEME</REF_FRAME><TIME_SYSTEM>UTC</TIME_SYSTEM><MEAN_ELEMENT_THEORY>SGP4</MEAN_ELEMENT_THEORY></metadata><data><meanElements><EPOCH>2024-05-11T19:54:13.637664</EPOCH><MEAN_MOTION>13.15547090</MEAN_MOTION><ECCENTRICITY>.0002234</ECCENTRICITY><INCLINATION>87.9051</INCLINATION><RA_OF_ASC_NODE>51.6772</RA_OF_ASC_NODE><ARG_OF_PERICENTER>89.6952</ARG_OF_PERICENTER><MEAN_ANOMALY>270.4434</MEAN_ANOMALY></meanElements><tleParameters><EPHEMERIS_TYPE>0</EPHEMERIS_TYPE><CLASSIFICATION_TYPE>U</CLASSIFICATION_TYPE><NORAD_CAT_ID>48785</NORAD_CAT_ID><ELEMENT_SET_NO>999</ELEMENT_SET_NO><REV_AT_EPOCH>14364</REV_AT_EPOCH><BSTAR>.36661E-3</BSTAR><MEAN_MOTION_DOT>.151E-5</MEAN_MOTION_DOT><MEAN_MOTION_DDOT>0</MEAN_MOTION_DDOT></tleParameters></data></segment></body></omm>
<omm id="CCSDS_OMM_VERS" version="2.0">
<header><CREATION_DATE/><ORIGINATOR/></header><body><segment><metadata><OBJECT_NAME>ONEWEB-0246</OBJECT_NAME><OBJECT_ID>2021-045V</OBJECT_ID><CENTER_NAME>EARTH</CENTER_NAME><REF_FRAME>TEME</REF_FRAME><TIME_SYSTEM>UTC</TIME_SYSTEM><MEAN_ELEMENT_THEORY>SGP4</MEAN_ELEMENT_THEORY></metadata><data><meanElements><EPOCH>2024-05-11T19:46:13.079136</EPOCH><MEAN_MOTION>13.15550453</MEAN_MOTION><ECCENTRICITY>.0001766</ECCENTRICITY><INCLINATION>87.9052</INCLINATION><RA_OF_ASC_NODE>51.6822</RA_OF_ASC_NODE><ARG_OF_PERICENTER>84.1715</ARG_OF_PERICENTER><MEAN_ANOMALY>275.9616</MEAN_ANOMALY></meanElements><tleParameters><EPHEMERIS_TYPE>0</EPHEMERIS_TYPE><CLASSIFICATION_TYPE>U</CLASSIFICATION_TYPE><NORAD_CAT_ID>48786</NORAD_CAT_ID><ELEMENT_SET_NO>999</ELEMENT_SET_NO><REV_AT_EPOCH>14351</REV_AT_EPOCH><BSTAR>-.29281E-3</BSTAR><MEAN_MOTION_DOT>-.97E-6</MEAN_MOTION_DOT><MEAN_MOTION_DDOT>0</MEAN_MOTION_DDOT></tleParameters></data></segment></body></omm>
<omm id="CCSDS_OMM_VERS" version="2.0">
<header><CREATION_DATE/><ORIGINATOR/></header><body><segment><metadata><OBJECT_NAME>ONEWEB-0210</OBJECT_NAME><OBJECT_ID>2021-045W</OBJECT_ID><CENTER_NAME>EARTH</CENTER_NAME><REF_FRAME>TEME</REF_FRAME><TIME_SYSTEM>UTC</TIME_SYSTEM><MEAN_ELEMENT_THEORY>SGP4</MEAN_ELEMENT_THEORY></metadata><data><meanElements><EPOCH>2024-05-12T11:35:26.886048</EPOCH><MEAN_MOTION>13.15552772</MEAN_MOTION><ECCENTRICITY>.0001635</ECCENTRICITY><INCLINATION>87.9052</INCLINATION><RA_OF_ASC_NODE>51.5566</RA_OF_ASC_NODE><ARG_OF_PERICENTER>109.0697</ARG_OF_PERICENTER><MEAN_ANOMALY>251.0610</MEAN_ANOMALY></meanElements><tleParameters><EPHEMERIS_TYPE>0</EPHEMERIS_TYPE><CLASSIFICATION_TYPE>U</CLASSIFICATION_TYPE><NORAD_CAT_ID>48787</NORAD_CAT_ID><ELEMENT_SET_NO>999</ELEMENT_SET_NO><REV_AT_EPOCH>14477</REV_AT_EPOCH><BSTAR>.50331E-5</BSTAR><MEAN_MOTION_DOT>.15E-6</MEAN_MOTION_DOT><MEAN_MOTION_DDOT>0</MEAN_MOTION_DDOT></tleParameters></data></segment></body></omm>
<omm id="CCSDS_OMM_VERS" version="2.0">
<header><CREATION_DATE/><ORIGINATOR/></header><body><segment><metadata><OBJECT_NAME>ONEWEB-0214</OBJECT_NAME><OBJECT_ID>2021-045X</OBJECT_ID><CENTER_NAME>EARTH</CENTER_NAME><REF_FRAME>TEME</REF_FRAME><TIME_SYSTEM>UTC</TIME_SYSTEM><MEAN_ELEMENT_THEORY>SGP4</MEAN_ELEMENT_THEORY></metadata><data><meanElements><EPOCH>2024-05-11T19:23:24.065088</EPOCH><MEAN_MOTION>13.15547541</MEAN_MOTION><ECCENTRICITY>.0001407</ECCENTRICITY><INCLINATION>87.9050</INCLINATION><RA_OF_ASC_NODE>51.6793</RA_OF_ASC_NODE><ARG_OF_PERICENTER>97.2405</ARG_OF_PERICENTER><MEAN_ANOMALY>262.8885</MEAN_ANOMALY></meanElements><tleParameters><EPHEMERIS_TYPE>0</EPHEMERIS_TYPE><CLASSIFICATION_TYPE>U</CLASSIFICATION_TYPE><NORAD_CAT_ID>48788</NORAD_CAT_ID><ELEMENT_SET_NO>999</ELEMENT_SET_NO><REV_AT_EPOCH>14352</REV_AT_EPOCH><BSTAR>-.80039E-3</BSTAR><MEAN_MOTION_DOT>-.288E-5</MEAN_MOTION_DOT><MEAN_MOTION_DDOT>0</MEAN_MOTION_DDOT></tleParameters></data></segment></body></omm>
<omm id="CCSDS_OMM_VERS" version="2.0">
<header><CREATION_DATE/><ORIGINATOR/></header><body><segment><metadata><OBJECT_NAME>ONEWEB-0221</OBJECT_NAME><OBJECT_ID>2021-045Y</OBJECT_ID><CENTER_NAME>EARTH</CENTER_NAME><REF_FRAME>TEME</REF_FRAME><TIME_SYSTEM>UTC</TIME_SYSTEM><MEAN_ELEMENT_THEORY>SGP4</MEAN_ELEMENT_THEORY></metadata><data><meanElements><EPOCH>2024-05-11T19:32:32.382816</EPOCH><MEAN_MOTION>13.15547037</MEAN_MOTION><ECCENTRICITY>.000203</ECCENTRICITY><INCLINATION>87.9055</INCLINATION><RA_OF_ASC_NODE>51.6952</RA_OF_ASC_NODE><ARG_OF_PERICENTER>88.8333</ARG_OF_PERICENTER><MEAN_ANOMALY>271.3030</MEAN_ANOMALY></meanElements><tleParameters><EPHEMERIS_TYPE>0</EPHEMERIS_TYPE><CLASSIFICATION_TYPE>U</CLASSIFICATION_TYPE><NORAD_CAT_ID>48789</NORAD_CAT_ID><ELEMENT_SET_NO>999</ELEMENT_SET_NO><REV_AT_EPOCH>14361</REV_AT_EPOCH><BSTAR>-.15903E-3</BSTAR><MEAN_MOTION_DOT>-.47E-6</MEAN_MOTION_DOT><MEAN_MOTION_DDOT>0</MEAN_MOTION_DDOT></tleParameters></data></segment></body></omm>
<omm id="CCSDS_OMM_VERS" version="2.0">
<header><CREATION_DATE/><ORIGINATOR/></header><body><segment><metadata><OBJECT_NAME>ONEWEB-0213</OBJECT_NAME><OBJECT_ID>2021-045Z</OBJECT_ID><CENTER_NAME>EARTH</CENTER_NAME><REF_FRAME>TEME</REF_FRAME><TIME_SYSTEM>UTC</TIME_SYSTEM><MEAN_ELEMENT_THEORY>SGP4</MEAN_ELEMENT_THEORY></metadata><data><meanElements><EPOCH>2024-05-11T19:16:33.604608</EPOCH><MEAN_MOTION>13.15546708</MEAN_MOTION><ECCENTRICITY>.0002021</ECCENTRICITY><INCLINATION>87.9054</INCLINATION><RA_OF_ASC_NODE>51.7118</RA_OF_ASC_NODE><ARG_OF_PERICENTER>92.1119</ARG_OF_PERICENTER><MEAN_ANOMALY>268.0243</MEAN_ANOMALY></meanElements><tleParameters><EPHEMERIS_TYPE>0</EPHEMERIS_TYPE><CLASSIFICATION_TYPE>U</CLASSIFICATION_TYPE><NORAD_CAT_ID>48790</NORAD_CAT_ID><ELEMENT_SET_NO>999</ELEMENT_SET_NO><REV_AT_EPOCH>14367</REV_AT_EPOCH><BSTAR>-.17318E-3</BSTAR><MEAN_MOTION_DOT>-.52E-6</MEAN_MOTION_DOT><MEAN_MOTION_DDOT>0</MEAN_MOTION_DDOT></tleParameters></data></segment></body></omm>
<omm id="CCSDS_OMM_VERS" version="2.0">
<header><CREATION_DATE/><ORIGINATOR/></header><body><segment><metadata><OBJECT_NAME>ONEWEB-0212</OBJECT_NAME><OBJECT_ID>2021-045AA</OBJECT_ID><CENTER_NAME>EARTH</CENTER_NAME><REF_FRAME>TEME</REF_FRAME><TIME_SYSTEM>UTC</TIME_SYSTEM><MEAN_ELEMENT_THEORY>SGP4</MEAN_ELEMENT_THEORY></metadata><data><meanElements><EPOCH>2024-05-12T11:09:14.277312</EPOCH><MEAN_MOTION>13.15514156</MEAN_MOTION><ECCENTRICITY>.0002403</ECCENTRICITY><INCLINATION>87.9055</INCLINATION><RA_OF_ASC_NODE>51.5636</RA_OF_ASC_NODE><ARG_OF_PERICENTER>70.9373</ARG_OF_PERICENTER><MEAN_ANOMALY>289.2017</MEAN_ANOMALY></meanElements><tleParameters><EPHEMERIS_TYPE>0</EPHEMERIS_TYPE><CLASSIFICATION_TYPE>U</CLASSIFICATION_TYPE><NORAD_CAT_ID>48791</NORAD_CAT_ID><ELEMENT_SET_NO>999</ELEMENT_SET_NO><REV_AT_EPOCH>14489</REV_AT_EPOCH><BSTAR>.66928E-2</BSTAR><MEAN_MOTION_DOT>.2532E-4</MEAN_MOTION_DOT><MEAN_MOTION_DDOT>0</MEAN_MOTION_DDOT></tleParameters></data></segment></body></omm>
<omm id="CCSDS_OMM_VERS" version="2.0">
<header><CREATION_DATE/><ORIGINATOR/></header><body><segment><metadata><OBJECT_NAME>ONEWEB-0227</OBJECT_NAME><OBJECT_ID>2021-045AB</OBJECT_ID><CENTER_NAME>EARTH</CENTER_NAME><REF_FRAME>TEME</REF_FRAME><TIME_SYSTEM>UTC</TIME_SYSTEM><MEAN_ELEMENT_THEORY>SGP4</MEAN_ELEMENT_THEORY></metadata><data><meanElements><EPOCH>2024-05-11T18:42:20.531520</EPOCH><MEAN_MOTION>13.15547289</MEAN_MOTION><ECCENTRICITY>.0002002</ECCENTRICITY><INCLINATION>87.9055</INCLINATION><RA_OF_ASC_NODE>51.7145</RA_OF_ASC_NODE><ARG_OF_PERICENTER>83.8845</ARG_OF_PERICENTER><MEAN_ANOMALY>276.2513</MEAN_ANOMALY></meanElements><tleParameters><EPHEMERIS_TYPE>0</EPHEMERIS_TYPE><CLASSIFICATION_TYPE>U</CLASSIFICATION_TYPE><NORAD_CAT_ID>48792</NORAD_CAT_ID><ELEMENT_SET_NO>999</ELEMENT_SET_NO><REV_AT_EPOCH>14361</REV_AT_EPOCH><BSTAR>.34723E-3</BSTAR><MEAN_MOTION_DOT>.144E-5</MEAN_MOTION_DOT><MEAN_MOTION_DDOT>0</MEAN_MOTION_DDOT></tleParameters></data></segment></body></omm>
<omm id="CCSDS_OMM_VERS" version="2.0">
<header><CREATION_DATE/><ORIGINATOR/></header><body><segment><metadata><OBJECT_NAME>ONEWEB-0226</OBJECT_NAME><OBJECT_ID>2021-045AC</OBJECT_ID><CENTER_NAME>EARTH</CENTER_NAME><REF_FRAME>TEME</REF_FRAME><TIME_SYSTEM>UTC</TIME_SYSTEM><MEAN_ELEMENT_THEORY>SGP4</MEAN_ELEMENT_THEORY></metadata><data><meanElements><EPOCH>2024-05-11T18:33:13.024224</EPOCH><MEAN_MOTION>13.15547419</MEAN_MOTION><ECCENTRICITY>.0001796</ECCENTRICITY><INCLINATION>87.9054</INCLINATION><RA_OF_ASC_NODE>51.7228</RA_OF_ASC_NODE><ARG_OF_PERICENTER>97.8660</ARG_OF_PERICENTER><MEAN_ANOMALY>262.2674</MEAN_ANOMALY></meanElements><tleParameters><EPHEMERIS_TYPE>0</EPHEMERIS_TYPE><CLASSIFICATION_TYPE>U</CLASSIFICATION_TYPE><NORAD_CAT_ID>48793</NORAD_CAT_ID><ELEMENT_SET_NO>999</ELEMENT_SET_NO><REV_AT_EPOCH>14358</REV_AT_EPOCH><BSTAR>.41794E-3</BSTAR><MEAN_MOTION_DOT>.17E-5</MEAN_MOTION_DOT><MEAN_MOTION_DDOT>0</MEAN_MOTION_DDOT></tleParameters></data></segment></body></omm>

</ndm>
